NORAD_CAT_ID,OBJECT_NAME,OBJECT_TYPE,EPOCH,MEAN_MOTION,ECCENTRICITY,INCLINATION,RA_OF_ASC_NODE,ARG_OF_PERICENTER,MEAN_ANOMALY,BSTAR,MEAN_MOTION_DOT,MEAN_MOTION_DDOT,TLE_LINE0,TLE_LINE1,TLE_LINE2,SEMIMAJOR_AXIS,PERIOD,APOGEE,PERIGEE,DECAYED
52344.0,STARLINK-3851,PAYLOAD,2023-05-17 06:21:31,15.08838317,0.0001141,53.2158,131.475,89.3654,270.7469,3.1512e-05,2.14e-06,0.0,0 STARLINK-3851,1 52344U 22045P   23137.26494239  .00000214  00000-0  31512-4 0  9999,2 52344  53.2158 131.4750 0001141  89.3654 270.7469 15.08838317 60675,6917.886,95.438,540.54,538.961,0.0
52344.0,STARLINK-3851,PAYLOAD,2023-05-18 06:12:17,15.08840541,0.0001156,53.216,127.0146,88.7528,271.3597,9.8186e-06,-1.32e-06,0.0,0 STARLINK-3851,1 52344U 22045P   23138.25854160 -.00000132  00000-0  98186-5 0  9993,2 52344  53.2160 127.0146 0001156  88.7528 271.3597 15.08840541 60825,6917.879,95.438,540.543,538.944,0.0
52344.0,STARLINK-3851,PAYLOAD,2023-05-18 15:44:36,15.08837572,0.0001132,53.2156,125.2304,86.767,273.3451,1.5613e-05,-3.9e-07,0.0,0 STARLINK-3851,1 52344U 22045P   23138.65598346 -.00000039  00000-0  15613-4 0  9997,2 52344  53.2156 125.2304 0001132  86.7670 273.3451 15.08837572 60883,6917.888,95.438,540.536,538.97,0.0
52344.0,STARLINK-3851,PAYLOAD,2023-05-19 15:35:24,15.08833584,0.0001169,53.2156,120.7703,89.1493,270.9633,1.3468e-05,-7.4e-07,0.0,0 STARLINK-3851,1 52344U 22045P   23139.64958818 -.00000074  00000-0  13468-4 0  9996,2 52344  53.2156 120.7703 0001169  89.1493 270.9633 15.08833584 61038,6917.9,95.438,540.574,538.956,0.0
52344.0,STARLINK-3851,PAYLOAD,2023-05-20 04:18:29,15.08829366,0.0001168,53.2158,118.3914,90.8018,269.3108,6.9443e-05,8.17e-06,0.0,0 STARLINK-3851,1 52344U 22045P   23140.17951126  .00000817  00000-0  69443-4 0  9999,2 52344  53.2158 118.3914 0001168  90.8018 269.3108 15.08829366 61119,6917.913,95.438,540.586,538.97,0.0
52344.0,STARLINK-3851,PAYLOAD,2023-05-20 15:26:11,15.08841874,0.0001191,53.2162,116.3099,89.1587,270.9541,7.3342e-05,8.8e-06,0.0,0 STARLINK-3851,1 52344U 22045P   23140.64318415  .00000880  00000-0  73342-4 0  9992,2 52344  53.2162 116.3099 0001191  89.1587 270.9541 15.08841874 61188,6917.875,95.437,540.564,538.916,0.0
52344.0,STARLINK-3851,PAYLOAD,2023-05-21 07:20:01,15.08850839,0.0001187,53.2164,113.336,89.0704,271.0424,0.00012999,1.782e-05,0.0,0 STARLINK-3851,1 52344U 22045P   23141.30557595  .00001782  00000-0  12999-3 0  9992,2 52344  53.2164 113.3360 0001187  89.0704 271.0424 15.08850839 61287,6917.847,95.437,540.533,538.891,0.0
52344.0,STARLINK-3851,PAYLOAD,2023-05-21 15:16:58,15.08833055,0.0001492,53.2164,111.8492,81.4023,278.7138,-7.4619e-06,-4.07e-06,0.0,0 STARLINK-3851,1 52344U 22045P   23141.63679296 -.00000407  00000-0 -74619-5 0  9995,2 52344  53.2164 111.8492 0001492  81.4023 278.7138 15.08833055 61338,6917.902,95.438,540.799,538.734,0.0
52344.0,STARLINK-3851,PAYLOAD,2023-05-21 21:38:31,15.08830621,0.0001539,53.2169,110.6609,81.2516,278.8651,3.2511e-05,2.29e-06,0.0,0 STARLINK-3851,1 52344U 22045P   23141.90175541  .00000229  00000-0  32511-4 0  9993,2 52344  53.2169 110.6609 0001539  81.2516 278.8651 15.08830621 61378,6917.909,95.438,540.839,538.709,0.0
52344.0,STARLINK-3851,PAYLOAD,2023-05-22 05:35:27,15.08830712,0.0001161,53.2166,109.1736,83.2236,276.8888,-1.403e-05,-5.11e-06,0.0,0 STARLINK-3851,1 52344U 22045P   23142.23295882 -.00000511  00000-0 -14030-4 0  9993,2 52344  53.2166 109.1736 0001161  83.2236 276.8888 15.08830712 61428,6917.909,95.438,540.577,538.971,0.0
52344.0,STARLINK-3851,PAYLOAD,2023-05-22 21:29:18,15.08843379,0.0001164,53.2175,106.1984,84.8562,275.2563,4.2744e-05,3.93e-06,0.0,0 STARLINK-3851,1 52344U 22045P   23142.89535131  .00000393  00000-0  42744-4 0  9998,2 52344  53.2175 106.1984 0001164  84.8562 275.2563 15.08843379 61529,6917.87,95.437,540.54,538.93,0.0
52344.0,STARLINK-3851,PAYLOAD,2023-05-23 02:15:27,15.08844621,0.0001194,53.2164,105.3076,80.2472,279.8655,0.00015387,2.162e-05,0.0,0 STARLINK-3851,1 52344U 22045P   23143.09407059  .00002162  00000-0  15387-3 0  9996,2 52344  53.2164 105.3076 0001194  80.2472 279.8655 15.08844621 61559,6917.866,95.437,540.557,538.905,0.0
52344.0,STARLINK-3851,PAYLOAD,2023-05-23 03:50:50,15.08847371,0.0001161,53.2162,105.0095,83.5082,276.6043,0.00018015,2.581e-05,0.0,0 STARLINK-3851,1 52344U 22045P   23143.16030943  .00002581  00000-0  18015-3 0  9994,2 52344  53.2162 105.0095 0001161  83.5082 276.6043 15.08847371 61564,6917.858,95.437,540.526,538.92,0.0
52344.0,STARLINK-3851,PAYLOAD,2023-05-24 03:41:37,15.08848507,0.0001133,53.2156,100.5486,82.39,277.722,0.00039568,6.016e-05,0.0,0 STARLINK-3851,1 52344U 22045P   23144.15391084  .00006016  00000-0  39568-3 0  9993,2 52344  53.2156 100.5486 0001133  82.3900 277.7220 15.08848507 61714,6917.854,95.437,540.503,538.936,0.0
52344.0,STARLINK-3851,PAYLOAD,2023-05-24 06:52:24,15.08851522,0.0001174,53.216,99.9535,85.4448,274.6678,0.00035658,5.393e-05,0.0,0 STARLINK-3851,1 52344U 22045P   23144.28638932  .00005393  00000-0  35658-3 0  9996,2 52344  53.2160  99.9535 0001174  85.4448 274.6678 15.08851522 61737,6917.845,95.437,540.522,538.898,0.0
52344.0,STARLINK-3851,PAYLOAD,2023-05-25 21:01:39,15.08841307,0.0001117,53.2161,92.8178,90.5854,269.5266,5.0067e-05,5.09e-06,0.0,0 STARLINK-3851,1 52344U 22045P   23145.87615189  .00000509  00000-0  50067-4 0  9997,2 52344  53.2161  92.8178 0001117  90.5854 269.5266 15.08841307 61970,6917.876,95.437,540.514,538.969,0.0
52344.0,STARLINK-3851,PAYLOAD,2023-05-26 01:47:48,15.08844809,0.000112,53.2159,91.9257,91.2197,268.8924,9.7992e-05,1.272e-05,0.0,0 STARLINK-3851,1 52344U 22045P   23146.07487060  .00001272  00000-0  97992-4 0  9991,2 52344  53.2159  91.9257 0001120  91.2197 268.8924 15.08844809 62005,6917.866,95.437,540.505,538.956,0.0
52344.0,STARLINK-3851,PAYLOAD,2023-05-26 20:52:26,15.08835979,0.0001109,53.2156,88.3577,93.643,266.4689,6.2771e-05,7.11e-06,0.0,0 STARLINK-3851,1 52344U 22045P   23146.86975604  .00000711  00000-0  62771-4 0  9998,2 52344  53.2156  88.3577 0001109  93.6430 266.4689 15.08835979 62123,6917.893,95.438,540.525,538.99,0.0
52344.0,STARLINK-3851,PAYLOAD,2023-05-27 03:13:59,15.08834063,0.0001102,53.2161,87.1687,92.8912,267.2207,8.5893e-06,-1.51e-06,0.0,0 STARLINK-3851,1 52344U 22045P   23147.13471739 -.00000151  00000-0  85893-5 0  9999,2 52344  53.2161  87.1687 0001102  92.8912 267.2207 15.08834063 62169,6917.899,95.438,540.526,539.001,0.0
52344.0,STARLINK-3851,PAYLOAD,2023-05-27 12:46:18,15.08835764,0.0001097,53.2173,85.3845,92.7125,267.3992,7.4989e-05,9.06e-06,0.0,0 STARLINK-3851,1 52344U 22045P   23147.53216024  .00000906  00000-0  74989-4 0  9997,2 52344  53.2173  85.3845 0001097  92.7125 267.3992 15.08835764 62224,6917.893,95.438,540.517,538.999,0.0
52344.0,STARLINK-3851,PAYLOAD,2023-05-28 03:04:46,15.08844383,0.0001037,53.2172,82.7083,86.6094,273.5017,0.00011908,1.608e-05,0.0,0 STARLINK-3851,1 52344U 22045P   23148.12831433  .00001608  00000-0  11908-3 0  9991,2 52344  53.2172  82.7083 0001037  86.6094 273.5017 15.08844383 62313,6917.867,95.437,540.449,539.015,0.0
52344.0,STARLINK-3851,PAYLOAD,2023-05-28 04:40:09,15.08847399,0.0001117,53.2178,82.4119,93.3742,266.7378,0.00014639,2.043e-05,0.0,0 STARLINK-3851,1 52344U 22045P   23148.19455218  .00002043  00000-0  14639-3 0  9999,2 52344  53.2178  82.4119 0001117  93.3742 266.7378 15.08847399 62325,6917.858,95.437,540.495,538.95,0.0
52344.0,STARLINK-3851,PAYLOAD,2023-05-29 04:30:56,15.08850121,0.0001087,53.2169,77.9517,95.5584,264.5532,0.00015345,2.156e-05,0.0,0 STARLINK-3851,1 52344U 22045P   23149.18815031  .00002156  00000-0  15345-3 0  9992,2 52344  53.2169  77.9517 0001087  95.5584 264.5532 15.08850121 62471,6917.849,95.437,540.466,538.962,0.0
52344.0,STARLINK-3851,PAYLOAD,2023-05-29 18:49:25,15.08837563,0.0001469,53.217,75.2755,84.8126,275.3034,1.9806e-05,2.7e-07,0.0,0 STARLINK-3851,1 52344U 22045P   23149.78432416  .00000027  00000-0  19806-4 0  9992,2 52344  53.2170  75.2755 0001469  84.8126 275.3034 15.08837563 62567,6917.888,95.438,540.769,538.737,0.0
52344.0,STARLINK-3851,PAYLOAD,2023-05-30 01:10:58,15.08835572,0.0001165,53.2177,74.0851,85.7963,274.3162,2.8493e-07,-2.83e-06,0.0,0 STARLINK-3851,1 52344U 22045P   23150.04928579 -.00000283  00000-0  28493-6 0  9992,2 52344  53.2177  74.0851 0001165  85.7963 274.3162 15.08835572 62604,6917.894,95.438,540.565,538.953,0.0
52344.0,STARLINK-3851,PAYLOAD,2023-05-31 04:12:30,15.0885659,0.0001252,53.2171,69.028,88.8411,271.2725,0.00030499,4.572e-05,0.0,0 STARLINK-3851,1 52344U 22045P   23151.17535265  .00004572  00000-0  30499-3 0  9993,2 52344  53.2171  69.0280 0001252  88.8411 271.2725 15.08856590 62779,6917.83,95.437,540.561,538.829,0.0
52344.0,STARLINK-3851,PAYLOAD,2023-05-31 21:41:45,15.08844459,0.0001883,53.2153,65.7516,113.2441,246.875,0.00029431,4.4e-05,0.0,0 STARLINK-3851,1 52344U 22045P   23151.90400154  .00004400  00000-0  29431-3 0  9996,2 52344  53.2153  65.7516 0001883 113.2441 246.8750 15.08844459 62889,6917.867,95.437,541.034,538.429,0.0
52344.0,STARLINK-3851,PAYLOAD,2023-06-01 00:52:31,15.08847828,0.0001169,53.2174,65.1628,90.0365,270.0761,0.00020202,2.929e-05,0.0,0 STARLINK-3851,1 52344U 22045P   23152.03647685  .00002929  00000-0  20202-3 0  9994,2 52344  53.2174  65.1628 0001169  90.0365 270.0761 15.08847828 62901,6917.856,95.437,540.53,538.913,0.0
52344.0,STARLINK-3851,PAYLOAD,2023-06-01 04:03:17,15.08852319,0.0001231,53.2173,64.5679,92.3925,267.7208,0.00029168,4.359e-05,0.0,0 STARLINK-3851,1 52344U 22045P   23152.16895531  .00004359  00000-0  29168-3 0  9992,2 52344  53.2173  64.5679 0001231  92.3925 267.7208 15.08852319 62928,6917.843,95.437,540.559,538.856,0.0
52344.0,STARLINK-3851,PAYLOAD,2023-06-01 21:32:32,15.08837894,0.0001311,53.2175,61.2956,96.4396,263.6746,-6.4495e-05,-1.314e-05,0.0,0 STARLINK-3851,1 52344U 22045P   23152.89759909 -.00001314  00000-0 -64495-4 0  9993,2 52344  53.2175  61.2956 0001311  96.4396 263.6746 15.08837894 63034,6917.887,95.438,540.659,538.845,0.0
